0 KIKU 5 (ETS 5)
1 18316U 87070A   13284.71489297 -.00000150  00000-0  10000-3 0  2530
2 18316 014.8029 017.7981 0000772 286.0290 073.9645 00.99331871 82882
0 KIKU 5 (ETS 5)
1 18316U 87070A   13286.72826311 -.00000101  00000-0  10000-3 0  2542
2 18316 014.8051 017.7760 0000695 280.1163 079.8682 00.99331102 82906
0 KIKU 5 (ETS 5)
1 18316U 87070A   13288.74164300 -.00000053  00000-0  10000-3 0  2556
2 18316 014.8070 017.7543 0000690 279.7863 080.1934 00.99330599 82928
0 KIKU 5 (ETS 5)
1 18316U 87070A   13291.76172322  .00000012  00000-0  10000-3 0  2560
2 18316 014.8101 017.7219 0001439 273.0129 086.9470 00.99330257 82950
0 KIKU 5 (ETS 5)
1 18316U 87070A   13293.77514227  .00000045  00000-0  10000-3 0  2574
2 18316 014.8121 017.7002 0001704 266.6801 093.2788 00.99330324 82972
0 KIKU 5 (ETS 5)
1 18316U 87070A   13294.78185231  .00000058  00000-0  10000-3 0  2580
2 18316 014.8132 017.6894 0002097 261.0825 098.8769 00.99330479 82985
